start=new Date('2021-11-24T00:00:00.000Z').valueOf();
sats=[{"MEAN_ANOMALY":"297.7358","REF_FRAME":"TEME","ARG_OF_PERICENTER":"62.3828","OBJECT_ID":"2019-029D","TLE_LINE1":"1 44238U 19029D   21327.75872617  .00008593  00000-0  42508-3 0  9997","REV_AT_EPOCH":"13686","EPHEMERIS_TYPE":"0","CENTER_NAME":"EARTH","APOAPSIS":"511.402","MEAN_MOTION_DDOT":"0.0000000000000","BSTAR":"0.00042508000000","LAUNCH_DATE":"2019-05-24","RA_OF_ASC_NODE":"340.3387","OBJECT_NAME":"STARLINK-24","MEAN_MOTION":"15.18592503","CLASSIFICATION_TYPE":"U","SEMIMAJOR_AXIS":"6888.231","PERIAPSIS":"508.789","ECCENTRICITY":"0.00018970","NORAD_CAT_ID":"44238","FILE":"3222563","GP_ID":"190362394","OBJECT_TYPE":"PAYLOAD","DECAY_DATE":null,"RCS_SIZE":"LARGE","INCLINATION":"52.9943","EPOCH":"2021-11-23T18:12:33.941088","PERIOD":"94.825","ELEMENT_SET_NO":"999","SITE":"AFETR","COUNTRY_CODE":"US","TIME_SYSTEM":"UTC","MEAN_MOTION_DOT":"0.00008593","TLE_LINE2":"2 44238  52.9943 340.3387 0001897  62.3828 297.7358 15.18592503136861","MEAN_ELEMENT_THEORY":"SGP4"},{"MEAN_MOTION_DOT":"0.00012221","TLE_LINE2":"2 44249  52.9758 310.0569 0004905 191.3715 168.7171 15.24455524137953","MEAN_ELEMENT_THEORY":"SGP4","SITE":"AFETR","COUNTRY_CODE":"US","TIME_SYSTEM":"UTC","PERIOD":"94.460","ELEMENT_SET_NO":"999","EPOCH":"2021-11-23T10:42:55.519488","RCS_SIZE":"LARGE","DECAY_DATE":null,"INCLINATION":"52.9758","GP_ID":"190336351","OBJECT_TYPE":"PAYLOAD","ECCENTRICITY":"0.00049050","FILE":"3222418","NORAD_CAT_ID":"44249","SEMIMAJOR_AXIS":"6870.558","PERIAPSIS":"489.053","RA_OF_ASC_NODE":"310.0569","OBJECT_NAME":"STARLINK-61","MEAN_MOTION":"15.24455524","CLASSIFICATION_TYPE":"U","LAUNCH_DATE":"2019-05-24","CENTER_NAME":"EARTH","APOAPSIS":"495.793","MEAN_MOTION_DDOT":"0.0000000000000","BSTAR":"0.00050401000000","OBJECT_ID":"2019-029Q","TLE_LINE1":"1 44249U 19029Q   21327.44647592  .00012221  00000-0  50401-3 0  9991","REV_AT_EPOCH":"13795","EPHEMERIS_TYPE":"0","ARG_OF_PERICENTER":"191.3715","MEAN_ANOMALY":"168.7171","REF_FRAME":"TEME"},{"DECAY_DATE":null,"INCLINATION":"52.9967","RCS_SIZE":"LARGE","OBJECT_TYPE":"PAYLOAD","GP_ID":"190335101","TIME_SYSTEM":"UTC","COUNTRY_CODE":"US","SITE":"AFETR","MEAN_ELEMENT_THEORY":"SGP4","MEAN_MOTION_DOT":"0.00009903","TLE_LINE2":"2 44252  52.9967 341.1930 0002890  43.0146 317.1074 15.20834720137461","EPOCH":"2021-11-23T10:43:05.368224","ELEMENT_SET_NO":"999","PERIOD":"94.685","EPHEMERIS_TYPE":"0","REV_AT_EPOCH":"13746","TLE_LINE1":"1 44252U 19029T   21327.44658991  .00009903  00000-0  45708-3 0  9997","OBJECT_ID":"2019-029T","MEAN_MOTION_DDOT":"0.0000000000000","BSTAR":"0.00045708000000","APOAPSIS":"505.312","CENTER_NAME":"EARTH","REF_FRAME":"TEME","MEAN_ANOMALY":"317.1074","ARG_OF_PERICENTER":"43.0146","PERIAPSIS":"501.335","SEMIMAJOR_AXIS":"6881.459","NORAD_CAT_ID":"44252","FILE":"3222418","ECCENTRICITY":"0.00028900","LAUNCH_DATE":"2019-05-24","CLASSIFICATION_TYPE":"U","MEAN_MOTION":"15.20834720","OBJECT_NAME":"STARLINK-71","RA_OF_ASC_NODE":"341.1930"},{"RCS_SIZE":"LARGE","DECAY_DATE":null,"INCLINATION":"52.9921","GP_ID":"190362144","OBJECT_TYPE":"PAYLOAD","TIME_SYSTEM":"UTC","SITE":"AFETR","COUNTRY_CODE":"US","MEAN_ELEMENT_THEORY":"SGP4","TLE_LINE2":"2 44257  52.9921 194.2593 0006349 155.9668 204.1641 15.61095583139731","MEAN_MOTION_DOT":"0.00083720","EPOCH":"2021-11-23T19:28:01.813440","ELEMENT_SET_NO":"999","PERIOD":"92.243","REV_AT_EPOCH":"13973","EPHEMERIS_TYPE":"0","OBJECT_ID":"2019-029Y","TLE_LINE1":"1 44257U 19029Y   21327.81113210  .00083720  00000-0  97033-3 0  9990","APOAPSIS":"388.787","MEAN_MOTION_DDOT":"0.0000000000000","BSTAR":"0.00097033000000","CENTER_NAME":"EARTH","REF_FRAME":"TEME","MEAN_ANOMALY":"204.1641","ARG_OF_PERICENTER":"155.9668","SEMIMAJOR_AXIS":"6762.628","PERIAPSIS":"380.200","ECCENTRICITY":"0.00063490","FILE":"3222563","NORAD_CAT_ID":"44257","LAUNCH_DATE":"2019-05-24","MEAN_MOTION":"15.61095583","CLASSIFICATION_TYPE":"U","RA_OF_ASC_NODE":"194.2593","OBJECT_NAME":"STARLINK-43"},{"OBJECT_TYPE":"PAYLOAD","GP_ID":"190361894","RCS_SIZE":"LARGE","DECAY_DATE":null,"INCLINATION":"53.0174","EPOCH":"2021-11-23T17:49:57.008352","ELEMENT_SET_NO":"999","PERIOD":"93.637","TIME_SYSTEM":"UTC","COUNTRY_CODE":"US","SITE":"AFETR","MEAN_ELEMENT_THEORY":"SGP4","TLE_LINE2":"2 44282  53.0174 251.3821 0006408  84.6867 275.4867 15.37845621138284","MEAN_MOTION_DOT":"0.00024098","REF_FRAME":"TEME","MEAN_ANOMALY":"275.4867","ARG_OF_PERICENTER":"84.6867","REV_AT_EPOCH":"13828","EPHEMERIS_TYPE":"0","TLE_LINE1":"1 44282U 19029AZ  21327.74302093  .00024098  00000-0  64641-3 0  9991","OBJECT_ID":"2019-029AZ","BSTAR":"0.00064641000000","MEAN_MOTION_DDOT":"0.0000000000000","APOAPSIS":"456.860","CENTER_NAME":"EARTH","LAUNCH_DATE":"2019-05-24","CLASSIFICATION_TYPE":"U","MEAN_MOTION":"15.37845621","RA_OF_ASC_NODE":"251.3821","OBJECT_NAME":"STARLINK-80","PERIAPSIS":"448.106","SEMIMAJOR_AXIS":"6830.618","FILE":"3222563","NORAD_CAT_ID":"44282","ECCENTRICITY":"0.00064080"},{"OBJECT_TYPE":"PAYLOAD","GP_ID":"190341325","DECAY_DATE":null,"RCS_SIZE":"LARGE","INCLINATION":"53.0512","EPOCH":"2021-11-23T13:05:58.602624","PERIOD":"95.592","ELEMENT_SET_NO":"999","COUNTRY_CODE":"US","SITE":"AFETR","TIME_SYSTEM":"UTC","TLE_LINE2":"2 44713  53.0512  21.8310 0001067  58.6154 301.4939 15.06399318112711","MEAN_MOTION_DOT":"-0.00000442","MEAN_ELEMENT_THEORY":"SGP4","MEAN_ANOMALY":"301.4939","REF_FRAME":"TEME","ARG_OF_PERICENTER":"58.6154","TLE_LINE1":"1 44713U 19074A   21327.54581716 -.00000442  00000-0 -10766-4 0  9998","OBJECT_ID":"2019-074A","EPHEMERIS_TYPE":"0","REV_AT_EPOCH":"11271","CENTER_NAME":"EARTH","MEAN_MOTION_DDOT":"0.0000000000000","BSTAR":"-0.00001076600000","APOAPSIS":"547.955","LAUNCH_DATE":"2019-11-11","RA_OF_ASC_NODE":"21.8310","OBJECT_NAME":"STARLINK-1007","CLASSIFICATION_TYPE":"U","MEAN_MOTION":"15.06399318","PERIAPSIS":"546.477","SEMIMAJOR_AXIS":"6925.351","FILE":"3222524","NORAD_CAT_ID":"44713","ECCENTRICITY":"0.00010670"},{"ELEMENT_SET_NO":"999","PERIOD":"95.592","EPOCH":"2021-11-23T10:59:57.645312","MEAN_ELEMENT_THEORY":"SGP4","MEAN_MOTION_DOT":"0.00000146","TLE_LINE2":"2 44714  53.0566  22.1994 0001095  77.5579 282.5533 15.06398515112701","TIME_SYSTEM":"UTC","COUNTRY_CODE":"US","SITE":"AFETR","OBJECT_TYPE":"PAYLOAD","GP_ID":"190340746","RCS_SIZE":"LARGE","DECAY_DATE":null,"INCLINATION":"53.0566","CLASSIFICATION_TYPE":"U","MEAN_MOTION":"15.06398515","OBJECT_NAME":"STARLINK-1008","RA_OF_ASC_NODE":"22.1994","LAUNCH_DATE":"2019-11-11","NORAD_CAT_ID":"44714","FILE":"3222504","ECCENTRICITY":"0.00010950","PERIAPSIS":"546.460","SEMIMAJOR_AXIS":"6925.353","ARG_OF_PERICENTER":"77.5579","REF_FRAME":"TEME","MEAN_ANOMALY":"282.5533","MEAN_MOTION_DDOT":"0.0000000000000","BSTAR":"0.00002871300000","APOAPSIS":"547.976","CENTER_NAME":"EARTH","REV_AT_EPOCH":"11270","EPHEMERIS_TYPE":"0","TLE_LINE1":"1 44714U 19074B   21327.45830608  .00000146  00000-0  28713-4 0  9996","OBJECT_ID":"2019-074B"},{"ARG_OF_PERICENTER":"72.7683","MEAN_ANOMALY":"287.3443","REF_FRAME":"TEME","CENTER_NAME":"EARTH","MEAN_MOTION_DDOT":"0.0000000000000","BSTAR":"0.00001541000000","APOAPSIS":"548.079","TLE_LINE1":"1 44715U 19074C   21327.57993822 -.00000052  00000-0  15410-4 0  9995","OBJECT_ID":"2019-074C","REV_AT_EPOCH":"11254","EPHEMERIS_TYPE":"0","OBJECT_NAME":"STARLINK-1009","RA_OF_ASC_NODE":"21.6494","CLASSIFICATION_TYPE":"U","MEAN_MOTION":"15.06400747","LAUNCH_DATE":"2019-11-11","FILE":"3222563","NORAD_CAT_ID":"44715","ECCENTRICITY":"0.00012530","PERIAPSIS":"546.344","SEMIMAJOR_AXIS":"6925.346","OBJECT_TYPE":"PAYLOAD","GP_ID":"190362184","DECAY_DATE":null,"RCS_SIZE":"LARGE","INCLINATION":"53.0550","PERIOD":"95.592","ELEMENT_SET_NO":"999","EPOCH":"2021-11-23T13:55:06.662208","TLE_LINE2":"2 44715  53.0550  21.6494 0001253  72.7683 287.3443 15.06400747112549","MEAN_MOTION_DOT":"-0.00000052","MEAN_ELEMENT_THEORY":"SGP4","COUNTRY_CODE":"US","SITE":"AFETR","TIME_SYSTEM":"UTC"},{"MEAN_MOTION_DOT":"0.00000456","TLE_LINE2":"2 44716  53.0576  21.8614 0001455  73.2195 286.8954 15.06395182112527","MEAN_ELEMENT_THEORY":"SGP4","SITE":"AFETR","COUNTRY_CODE":"US","TIME_SYSTEM":"UTC","PERIOD":"95.592","ELEMENT_SET_NO":"999","EPOCH":"2021-11-23T12:46:07.015296","INCLINATION":"53.0576","DECAY_DATE":null,"RCS_SIZE":"LARGE","GP_ID":"190336143","OBJECT_TYPE":"PAYLOAD","ECCENTRICITY":"0.00014550","NORAD_CAT_ID":"44716","FILE":"3222418","SEMIMAJOR_AXIS":"6925.363","PERIAPSIS":"546.221","RA_OF_ASC_NODE":"21.8614","OBJECT_NAME":"STARLINK-1010","MEAN_MOTION":"15.06395182","CLASSIFICATION_TYPE":"U","LAUNCH_DATE":"2019-11-11","CENTER_NAME":"EARTH","APOAPSIS":"548.236","MEAN_MOTION_DDOT":"0.0000000000000","BSTAR":"0.00004949800000","OBJECT_ID":"2019-074D","TLE_LINE1":"1 44716U 19074D   21327.53202564  .00000456  00000-0  49498-4 0  9998","REV_AT_EPOCH":"11252","EPHEMERIS_TYPE":"0","ARG_OF_PERICENTER":"73.2195","MEAN_ANOMALY":"286.8954","REF_FRAME":"TEME"},{"SEMIMAJOR_AXIS":"6925.365","PERIAPSIS":"546.359","ECCENTRICITY":"0.00012580","NORAD_CAT_ID":"44717","FILE":"3222563","LAUNCH_DATE":"2019-11-11","MEAN_MOTION":"15.06394599","CLASSIFICATION_TYPE":"U","OBJECT_NAME":"STARLINK-1011","RA_OF_ASC_NODE":"41.5673","REV_AT_EPOCH":"11227","EPHEMERIS_TYPE":"0","OBJECT_ID":"2019-074E","TLE_LINE1":"1 44717U 19074E   21327.59653019 -.00000289  00000-0 -53323-6 0  9990","APOAPSIS":"548.101","MEAN_MOTION_DDOT":"0.0000000000000","BSTAR":"-0.00000053323000","CENTER_NAME":"EARTH","REF_FRAME":"TEME","MEAN_ANOMALY":"288.8103","ARG_OF_PERICENTER":"71.3023","TIME_SYSTEM":"UTC","SITE":"AFETR","COUNTRY_CODE":"US","MEAN_ELEMENT_THEORY":"SGP4","TLE_LINE2":"2 44717  53.0554  41.5673 0001258  71.3023 288.8103 15.06394599112279","MEAN_MOTION_DOT":"-0.00000289","EPOCH":"2021-11-23T14:19:00.208416","ELEMENT_SET_NO":"999","PERIOD":"95.592","DECAY_DATE":null,"RCS_SIZE":"LARGE","INCLINATION":"53.0554","GP_ID":"190360682","OBJECT_TYPE":"PAYLOAD"}];
